[{"OBJECT_NAME":"IRIDIUM 151","OBJECT_ID":"2017-083E","EPOCH":"2026-03-03T19:22:43.128768","MEAN_MOTION":14.34218361,"ECCENTRICITY":0.000215,"INCLINATION":86.4014,"RA_OF_ASC_NODE":6.0919,"ARG_OF_PERICENTER":86.1891,"MEAN_ANOMALY":273.955,"EPHEMERIS_TYPE":0,"CLASSIFICATION_TYPE":"U","NORAD_CAT_ID":43074,"ELEMENT_SET_NO":999,"REV_AT_EPOCH":42903,"BSTAR":2.9233e-5,"MEAN_MOTION_DOT":1.02e-6,"MEAN_MOTION_DDOT":0},{"OBJECT_NAME":"IRIDIUM 134","OBJECT_ID":"2017-083F","EPOCH":"2026-03-03T20:17:31.117056","MEAN_MOTION":14.34218089,"ECCENTRICITY":0.0001993,"INCLINATION":86.402,"RA_OF_ASC_NODE":6.0826,"ARG_OF_PERICENTER":84.8152,"MEAN_ANOMALY":275.3271,"EPHEMERIS_TYPE":0,"CLASSIFICATION_TYPE":"U","NORAD_CAT_ID":43075,"ELEMENT_SET_NO":999,"REV_AT_EPOCH":42900,"BSTAR":1.7482e-5,"MEAN_MOTION_DOT":6.9e-7,"MEAN_MOTION_DDOT":0},{"OBJECT_NAME":"IRIDIUM 137","OBJECT_ID":"2017-083G","EPOCH":"2026-03-03T18:55:19.153632","MEAN_MOTION":14.34218031,"ECCENTRICITY":0.00023073,"INCLINATION":86.402,"RA_OF_ASC_NODE":6.1967,"ARG_OF_PERICENTER":97.0383,"MEAN_ANOMALY":263.1075,"EPHEMERIS_TYPE":0,"CLASSIFICATION_TYPE":"U","NORAD_CAT_ID":43076,"ELEMENT_SET_NO":999,"REV_AT_EPOCH":42906,"BSTAR":9.745093e-6,"MEAN_MOTION_DOT":4.7e-7,"MEAN_MOTION_DDOT":0},{"OBJECT_NAME":"IRIDIUM 141","OBJECT_ID":"2017-083H","EPOCH":"2026-03-03T20:26:40.135488","MEAN_MOTION":14.34220766,"ECCENTRICITY":0.0002231,"INCLINATION":86.4015,"RA_OF_ASC_NODE":6.0073,"ARG_OF_PERICENTER":82.853,"MEAN_ANOMALY":277.292,"EPHEMERIS_TYPE":0,"CLASSIFICATION_TYPE":"U","NORAD_CAT_ID":43077,"ELEMENT_SET_NO":999,"REV_AT_EPOCH":42907,"BSTAR":0.00013494,"MEAN_MOTION_DOT":3.98e-6,"MEAN_MOTION_DDOT":0},{"OBJECT_NAME":"IRIDIUM 153","OBJECT_ID":"2017-083J","EPOCH":"2026-03-04T01:59:39.358752","MEAN_MOTION":14.34218376,"ECCENTRICITY":0.0002146,"INCLINATION":86.4018,"RA_OF_ASC_NODE":334.4246,"ARG_OF_PERICENTER":78.4957,"MEAN_ANOMALY":281.648,"EPHEMERIS_TYPE":0,"CLASSIFICATION_TYPE":"U","NORAD_CAT_ID":43078,"ELEMENT_SET_NO":999,"REV_AT_EPOCH":43021,"BSTAR":3.1614e-5,"MEAN_MOTION_DOT":1.08e-6,"MEAN_MOTION_DDOT":0},{"OBJECT_NAME":"IRIDIUM 131","OBJECT_ID":"2017-083K","EPOCH":"2026-03-03T20:08:23.186400","MEAN_MOTION":14.34217334,"ECCENTRICITY":0.0002321,"INCLINATION":86.4021,"RA_OF_ASC_NODE":6.1914,"ARG_OF_PERICENTER":85.2263,"MEAN_ANOMALY":274.9198,"EPHEMERIS_TYPE":0,"CLASSIFICATION_TYPE":"U","NORAD_CAT_ID":43079,"ELEMENT_SET_NO":999,"REV_AT_EPOCH":42900,"BSTAR":0.00013403,"MEAN_MOTION_DOT":3.95e-6,"MEAN_MOTION_DDOT":0},{"OBJECT_NAME":"IRIDIUM 144","OBJECT_ID":"2018-030A","EPOCH":"2026-03-04T02:08:47.431104","MEAN_MOTION":14.34217594,"ECCENTRICITY":0.0002027,"INCLINATION":86.4015,"RA_OF_ASC_NODE":334.3534,"ARG_OF_PERICENTER":87.0515,"MEAN_ANOMALY":273.0913,"EPHEMERIS_TYPE":0,"CLASSIFICATION_TYPE":"U","NORAD_CAT_ID":43249,"ELEMENT_SET_NO":999,"REV_AT_EPOCH":41507,"BSTAR":3.4346e-6,"MEAN_MOTION_DOT":2.9e-7,"MEAN_MOTION_DDOT":0},{"OBJECT_NAME":"IRIDIUM 149","OBJECT_ID":"2018-030B","EPOCH":"2026-03-04T02:17:55.348800","MEAN_MOTION":14.34218748,"ECCENTRICITY":0.0002134,"INCLINATION":86.4014,"RA_OF_ASC_NODE":334.319,"ARG_OF_PERICENTER":83.066,"MEAN_ANOMALY":277.0778,"EPHEMERIS_TYPE":0,"CLASSIFICATION_TYPE":"U","NORAD_CAT_ID":43250,"ELEMENT_SET_NO":999,"REV_AT_EPOCH":41509,"BSTAR":6.4272e-5,"MEAN_MOTION_DOT":2.0e-6,"MEAN_MOTION_DDOT":0},{"OBJECT_NAME":"IRIDIUM 157","OBJECT_ID":"2018-030C","EPOCH":"2026-03-04T02:45:19.359360","MEAN_MOTION":14.34218383,"ECCENTRICITY":0.0002147,"INCLINATION":86.4016,"RA_OF_ASC_NODE":334.3621,"ARG_OF_PERICENTER":85.3258,"MEAN_ANOMALY":274.8183,"EPHEMERIS_TYPE":0,"CLASSIFICATION_TYPE":"U","NORAD_CAT_ID":43251,"ELEMENT_SET_NO":999,"REV_AT_EPOCH":41507,"BSTAR":3.8154e-5,"MEAN_MOTION_DOT":1.27e-6,"MEAN_MOTION_DDOT":0},{"OBJECT_NAME":"IRIDIUM 140","OBJECT_ID":"2018-030D","EPOCH":"2026-03-04T03:12:43.407936","MEAN_MOTION":14.34217494,"ECCENTRICITY":0.0001938,"INCLINATION":86.4011,"RA_OF_ASC_NODE":334.3668,"ARG_OF_PERICENTER":83.6229,"MEAN_ANOMALY":276.5187,"EPHEMERIS_TYPE":0,"CLASSIFICATION_TYPE":"U","NORAD_CAT_ID":43252,"ELEMENT_SET_NO":999,"REV_AT_EPOCH":41513,"BSTAR":-1.0156e-5,"MEAN_MOTION_DOT":-9.0e-8,"MEAN_MOTION_DDOT":0},{"OBJECT_NAME":"IRIDIUM 145","OBJECT_ID":"2018-030E","EPOCH":"2026-03-04T02:54:27.220032","MEAN_MOTION":14.3421927,"ECCENTRICITY":0.000187,"INCLINATION":86.402,"RA_OF_ASC_NODE":334.3447,"ARG_OF_PERICENTER":93.0055,"MEAN_ANOMALY":267.1355,"EPHEMERIS_TYPE":0,"CLASSIFICATION_TYPE":"U","NORAD_CAT_ID":43253,"ELEMENT_SET_NO":999,"REV_AT_EPOCH":41506,"BSTAR":9.6536e-5,"MEAN_MOTION_DOT":2.9e-6,"MEAN_MOTION_DDOT":0},{"OBJECT_NAME":"IRIDIUM 146","OBJECT_ID":"2018-030F","EPOCH":"2026-03-04T02:27:03.269088","MEAN_MOTION":14.34219664,"ECCENTRICITY":0.0002077,"INCLINATION":86.4016,"RA_OF_ASC_NODE":334.3651,"ARG_OF_PERICENTER":88.8789,"MEAN_ANOMALY":271.2644,"EPHEMERIS_TYPE":0,"CLASSIFICATION_TYPE":"U","NORAD_CAT_ID":43254,"ELEMENT_SET_NO":999,"REV_AT_EPOCH":41507,"BSTAR":0.0001211,"MEAN_MOTION_DOT":3.59e-6,"MEAN_MOTION_DDOT":0},{"OBJECT_NAME":"IRIDIUM 148","OBJECT_ID":"2018-030G","EPOCH":"2026-03-04T01:41:23.417952","MEAN_MOTION":14.34217713,"ECCENTRICITY":0.0002179,"INCLINATION":86.4019,"RA_OF_ASC_NODE":334.4201,"ARG_OF_PERICENTER":85.3881,"MEAN_ANOMALY":274.7564,"EPHEMERIS_TYPE":0,"CLASSIFICATION_TYPE":"U","NORAD_CAT_ID":43255,"ELEMENT_SET_NO":999,"REV_AT_EPOCH":41510,"BSTAR":8.5474e-5,"MEAN_MOTION_DOT":2.59e-6,"MEAN_MOTION_DDOT":0},{"OBJECT_NAME":"IRIDIUM 142","OBJECT_ID":"2018-030H","EPOCH":"2026-03-04T04:16:39.375264","MEAN_MOTION":14.34217797,"ECCENTRICITY":0.0001951,"INCLINATION":86.4012,"RA_OF_ASC_NODE":334.2675,"ARG_OF_PERICENTER":92.8114,"MEAN_ANOMALY":267.3305,"EPHEMERIS_TYPE":0,"CLASSIFICATION_TYPE":"U","NORAD_CAT_ID":43256,"ELEMENT_SET_NO":999,"REV_AT_EPOCH":41508,"BSTAR":8.2303e-6,"MEAN_MOTION_DOT":4.3e-7,"MEAN_MOTION_DDOT":0},{"OBJECT_NAME":"IRIDIUM 150","OBJECT_ID":"2018-030J","EPOCH":"2026-03-04T01:50:31.306272","MEAN_MOTION":14.34217839,"ECCENTRICITY":0.0002065,"INCLINATION":86.4019,"RA_OF_ASC_NODE":334.423,"ARG_OF_PERICENTER":85.8855,"MEAN_ANOMALY":274.2577,"EPHEMERIS_TYPE":0,"CLASSIFICATION_TYPE":"U","NORAD_CAT_ID":43257,"ELEMENT_SET_NO":999,"REV_AT_EPOCH":41509,"BSTAR":6.6785e-5,"MEAN_MOTION_DOT":2.07e-6,"MEAN_MOTION_DDOT":0},{"OBJECT_NAME":"IRIDIUM 143","OBJECT_ID":"2018-030K","EPOCH":"2026-03-04T03:03:35.400384","MEAN_MOTION":14.34217903,"ECCENTRICITY":0.0002019,"INCLINATION":86.402,"RA_OF_ASC_NODE":334.4902,"ARG_OF_PERICENTER":89.0373,"MEAN_ANOMALY":271.1054,"EPHEMERIS_TYPE":0,"CLASSIFICATION_TYPE":"U","NORAD_CAT_ID":43258,"ELEMENT_SET_NO":999,"REV_AT_EPOCH":41503,"BSTAR":1.0852e-5,"MEAN_MOTION_DOT":5.0e-7,"MEAN_MOTION_DDOT":0},{"OBJECT_NAME":"IRIDIUM 161","OBJECT_ID":"2018-047C","EPOCH":"2026-03-04T03:11:11.613120","MEAN_MOTION":14.43283652,"ECCENTRICITY":0.0002542,"INCLINATION":86.451,"RA_OF_ASC_NODE":132.4047,"ARG_OF_PERICENTER":92.3674,"MEAN_ANOMALY":267.7818,"EPHEMERIS_TYPE":0,"CLASSIFICATION_TYPE":"U","NORAD_CAT_ID":43478,"ELEMENT_SET_NO":999,"REV_AT_EPOCH":40998,"BSTAR":0.00012785,"MEAN_MOTION_DOT":4.5e-6,"MEAN_MOTION_DDOT":0}]
