IRIDIUM 151             
1 43074U 17083E   26062.80744362  .00000102  00000+0  29233-4 0  9992
2 43074  86.4014   6.0919 0002150  86.1891 273.9550 14.34218361429031
IRIDIUM 134             
1 43075U 17083F   26062.84549904  .00000069  00000+0  17482-4 0  9997
2 43075  86.4020   6.0826 0001993  84.8152 275.3271 14.34218089429005
IRIDIUM 137             
1 43076U 17083G   26062.78841613  .00000047  00000+0  97451-5 0  9994
2 43076  86.4020   6.1967 0002307  97.0383 263.1075 14.34218031429065
IRIDIUM 141             
1 43077U 17083H   26062.85185342  .00000398  00000+0  13494-3 0  9995
2 43077  86.4015   6.0073 0002231  82.8530 277.2920 14.34220766429073
IRIDIUM 153             
1 43078U 17083J   26063.08309443  .00000108  00000+0  31614-4 0  9996
2 43078  86.4018 334.4246 0002146  78.4957 281.6480 14.34218376430218
IRIDIUM 131             
1 43079U 17083K   26062.83915725  .00000395  00000+0  13403-3 0  9998
2 43079  86.4021   6.1914 0002321  85.2263 274.9198 14.34217334429008
IRIDIUM 144             
1 43249U 18030A   26063.08943786  .00000029  00000+0  34346-5 0  9991
2 43249  86.4015 334.3534 0002027  87.0515 273.0913 14.34217594415072
IRIDIUM 149             
1 43250U 18030B   26063.09577950  .00000200  00000+0  64272-4 0  9991
2 43250  86.4014 334.3190 0002134  83.0660 277.0778 14.34218748415094
IRIDIUM 157             
1 43251U 18030C   26063.11480740  .00000127  00000+0  38154-4 0  9993
2 43251  86.4016 334.3621 0002147  85.3258 274.8183 14.34218383415076
IRIDIUM 140             
1 43252U 18030D   26063.13383574 -.00000009  00000+0 -10156-4 0  9996
2 43252  86.4011 334.3668 0001938  83.6229 276.5187 14.34217494415131
IRIDIUM 145             
1 43253U 18030E   26063.12114838  .00000290  00000+0  96536-4 0  9997
2 43253  86.4020 334.3447 0001870  93.0055 267.1355 14.34219270415063
IRIDIUM 146             
1 43254U 18030F   26063.10212117  .00000359  00000+0  12110-3 0  9996
2 43254  86.4016 334.3651 0002077  88.8789 271.2644 14.34219664415077
IRIDIUM 148             
1 43255U 18030G   26063.07040993  .00000259  00000+0  85474-4 0  9997
2 43255  86.4019 334.4201 0002179  85.3881 274.7564 14.34217713415107
IRIDIUM 142             
1 43256U 18030H   26063.17823351  .00000043  00000+0  82303-5 0  9996
2 43256  86.4012 334.2675 0001951  92.8114 267.3305 14.34217797415083
IRIDIUM 150             
1 43257U 18030J   26063.07675123  .00000207  00000+0  66785-4 0  9995
2 43257  86.4019 334.4230 0002065  85.8855 274.2577 14.34217839415097
IRIDIUM 143             
1 43258U 18030K   26063.12749306  .00000050  00000+0  10852-4 0  9997
2 43258  86.4020 334.4902 0002019  89.0373 271.1054 14.34217903415038
IRIDIUM 161             
1 43478U 18047C   26063.13277330  .00000450  00000+0  12785-3 0  9993
2 43478  86.4510 132.4047 0002542  92.3674 267.7818 14.43283652409984
